{
  "type": "FeatureCollection",
  "features": [
    {
      "type": "Feature",
      "properties": {
        "norad_id": 40730,
        "name": "GPS BIIF-10 (PRN 08)",
        "group": "gps-ops",
        "lat": -53.93419939738499,
        "lon": -168.38815849653577,
        "alt_km": 20299.155930987446,
        "timestamp": "2025-12-20T14:38:02.228955+00:00",
        "meta_object_name": "GPS BIIF-10 (PRN 08)",
        "meta_object_id": "2015-033A",
        "meta_epoch": "2025-12-19T05:34:06.019968",
        "meta_mean_motion": 2.00565397,
        "meta_eccentricity": 0.01113411,
        "meta_inclination": 54.125,
        "meta_ra_of_asc_node": 274.5058,
        "meta_arg_of_pericenter": 26.9648,
        "meta_mean_anomaly": 333.641,
        "meta_ephemeris_type": 0,
        "meta_classification_type": "U",
        "meta_norad_cat_id": 40730,
        "meta_element_set_no": 999,
        "meta_rev_at_epoch": 7638,
        "meta_bstar": 0,
        "meta_mean_motion_dot": -2.6e-07,
        "meta_mean_motion_ddot": 0,
        "tle_line1": "1 40730U 15033A   25353.23201412 -.00000026  00000+0  00000+0 0  9996",
        "tle_line2": "2 40730  54.1250 274.5058 0111341  26.9648 333.6410  2.00565397 76381"
      },
      "geometry": {
        "type": "Point",
        "coordinates": [
          -168.38815849653577,
          -53.93419939738499
        ]
      }
    },
    {
      "type": "Feature",
      "properties": {
        "norad_id": 41019,
        "name": "GPS BIIF-11 (PRN 10)",
        "group": "gps-ops",
        "lat": -40.57851559685778,
        "lon": -108.25035599789483,
        "alt_km": 19891.36288519353,
        "timestamp": "2025-12-20T14:38:02.228966+00:00",
        "meta_object_name": "GPS BIIF-11 (PRN 10)",
        "meta_object_id": "2015-062A",
        "meta_epoch": "2025-12-18T07:03:43.989696",
        "meta_mean_motion": 2.00567221,
        "meta_eccentricity": 0.0110964,
        "meta_inclination": 56.8362,
        "meta_ra_of_asc_node": 37.7874,
        "meta_arg_of_pericenter": 230.0867,
        "meta_mean_anomaly": 128.9943,
        "meta_ephemeris_type": 0,
        "meta_classification_type": "U",
        "meta_norad_cat_id": 41019,
        "meta_element_set_no": 999,
        "meta_rev_at_epoch": 7420,
        "meta_bstar": 0,
        "meta_mean_motion_dot": -6.9e-07,
        "meta_mean_motion_ddot": 0,
        "tle_line1": "1 41019U 15062A   25352.29425914 -.00000069  00000+0  00000+0 0  9996",
        "tle_line2": "2 41019  56.8362  37.7874 0110964 230.0867 128.9943  2.00567221 74204"
      },
      "geometry": {
        "type": "Point",
        "coordinates": [
          -108.25035599789483,
          -40.57851559685778
        ]
      }
    },
    {
      "type": "Feature",
      "properties": {
        "norad_id": 41328,
        "name": "GPS BIIF-12 (PRN 32)",
        "group": "gps-ops",
        "lat": 7.981026786936352,
        "lon": -88.99869307956516,
        "alt_km": 20109.517495437667,
        "timestamp": "2025-12-20T14:38:02.228977+00:00",
        "meta_object_name": "GPS BIIF-12 (PRN 32)",
        "meta_object_id": "2016-007A",
        "meta_epoch": "2025-12-19T20:56:37.582080",
        "meta_mean_motion": 2.00560395,
        "meta_eccentricity": 0.0092529,
        "meta_inclination": 55.41,
        "meta_ra_of_asc_node": 96.5739,
        "meta_arg_of_pericenter": 243.7509,
        "meta_mean_anomaly": 115.2864,
        "meta_ephemeris_type": 0,
        "meta_classification_type": "U",
        "meta_norad_cat_id": 41328,
        "meta_element_set_no": 999,
        "meta_rev_at_epoch": 7224,
        "meta_bstar": 0,
        "meta_mean_motion_dot": -2.3e-07,
        "meta_mean_motion_ddot": 0,
        "tle_line1": "1 41328U 16007A   25353.87265720 -.00000023  00000+0  00000+0 0  9991",
        "tle_line2": "2 41328  55.4100  96.5739 0092529 243.7509 115.2864  2.00560395 72243"
      },
      "geometry": {
        "type": "Point",
        "coordinates": [
          -88.99869307956516,
          7.981026786936352
        ]
      }
    },
    {
      "type": "Feature",
      "properties": {
        "norad_id": 43873,
        "name": "GPS BIII-1  (PRN 04)",
        "group": "gps-ops",
        "lat": 48.591917137167435,
        "lon": 150.19301914801338,
        "alt_km": 20241.148353699307,
        "timestamp": "2025-12-20T14:38:02.228989+00:00",
        "meta_object_name": "GPS BIII-1  (PRN 04)",
        "meta_object_id": "2018-109A",
        "meta_epoch": "2025-12-20T00:28:38.598816",
        "meta_mean_motion": 2.00553953,
        "meta_eccentricity": 0.00375628,
        "meta_inclination": 55.5707,
        "meta_ra_of_asc_node": 99.2599,
        "meta_arg_of_pericenter": 195.3516,
        "meta_mean_anomaly": 164.4447,
        "meta_ephemeris_type": 0,
        "meta_classification_type": "U",
        "meta_norad_cat_id": 43873,
        "meta_element_set_no": 999,
        "meta_rev_at_epoch": 5147,
        "meta_bstar": 0,
        "meta_mean_motion_dot": -1.8e-07,
        "meta_mean_motion_ddot": 0,
        "tle_line1": "1 43873U 18109A   25354.01989119 -.00000018  00000+0  00000+0 0  9999",
        "tle_line2": "2 43873  55.5707  99.2599 0037562 195.3516 164.4447  2.00553953 51471"
      },
      "geometry": {
        "type": "Point",
        "coordinates": [
          150.19301914801338,
          48.591917137167435
        ]
      }
    },
    {
      "type": "Feature",
      "properties": {
        "norad_id": 44506,
        "name": "GPS BIII-2  (PRN 18)",
        "group": "gps-ops",
        "lat": -29.41225395193729,
        "lon": -44.38497601288418,
        "alt_km": 20272.837500457434,
        "timestamp": "2025-12-20T14:38:02.229000+00:00",
        "meta_object_name": "GPS BIII-2  (PRN 18)",
        "meta_object_id": "2019-056A",
        "meta_epoch": "2025-12-20T05:10:31.696032",
        "meta_mean_motion": 2.00566646,
        "meta_eccentricity": 0.00577304,
        "meta_inclination": 55.7188,
        "meta_ra_of_asc_node": 338.2562,
        "meta_arg_of_pericenter": 198.5398,
        "meta_mean_anomaly": 199.8804,
        "meta_ephemeris_type": 0,
        "meta_classification_type": "U",
        "meta_norad_cat_id": 44506,
        "meta_element_set_no": 999,
        "meta_rev_at_epoch": 4648,
        "meta_bstar": 0,
        "meta_mean_motion_dot": -7.7e-07,
        "meta_mean_motion_ddot": 0,
        "tle_line1": "1 44506U 19056A   25354.21564463 -.00000077  00000+0  00000+0 0  9993",
        "tle_line2": "2 44506  55.7188 338.2562 0057730 198.5398 199.8804  2.00566646 46485"
      },
      "geometry": {
        "type": "Point",
        "coordinates": [
          -44.38497601288418,
          -29.41225395193729
        ]
      }
    },
    {
      "type": "Feature",
      "properties": {
        "norad_id": 45854,
        "name": "GPS BIII-3  (PRN 23)",
        "group": "gps-ops",
        "lat": -56.46837350345932,
        "lon": -58.62664220474649,
        "alt_km": 20116.124014729052,
        "timestamp": "2025-12-20T14:38:02.229011+00:00",
        "meta_object_name": "GPS BIII-3  (PRN 23)",
        "meta_object_id": "2020-041A",
        "meta_epoch": "2025-12-19T05:46:39.794304",
        "meta_mean_motion": 2.00561972,
        "meta_eccentricity": 0.006061,
        "meta_inclination": 56.5512,
        "meta_ra_of_asc_node": 35.9326,
        "meta_arg_of_pericenter": 203.6529,
        "meta_mean_anomaly": 154.7875,
        "meta_ephemeris_type": 0,
        "meta_classification_type": "U",
        "meta_norad_cat_id": 45854,
        "meta_element_set_no": 999,
        "meta_rev_at_epoch": 4042,
        "meta_bstar": 0,
        "meta_mean_motion_dot": -6.4e-07,
        "meta_mean_motion_ddot": 0,
        "tle_line1": "1 45854U 20041A   25353.24073836 -.00000064  00000+0  00000+0 0  9993",
        "tle_line2": "2 45854  56.5512  35.9326 0060610 203.6529 154.7875  2.00561972 40429"
      },
      "geometry": {
        "type": "Point",
        "coordinates": [
          -58.62664220474649,
          -56.46837350345932
        ]
      }
    },
    {
      "type": "Feature",
      "properties": {
        "norad_id": 46826,
        "name": "GPS BIII-4  (PRN 14)",
        "group": "gps-ops",
        "lat": -43.605645515318365,
        "lon": 81.8207942631038,
        "alt_km": 20045.248497073626,
        "timestamp": "2025-12-20T14:38:02.229023+00:00",
        "meta_object_name": "GPS BIII-4  (PRN 14)",
        "meta_object_id": "2020-078A",
        "meta_epoch": "2025-12-16T01:06:13.902336",
        "meta_mean_motion": 2.00566891,
        "meta_eccentricity": 0.0064755,
        "meta_inclination": 54.0145,
        "meta_ra_of_asc_node": 218.2068,
        "meta_arg_of_pericenter": 203.3828,
        "meta_mean_anomaly": 339.3936,
        "meta_ephemeris_type": 0,
        "meta_classification_type": "U",
        "meta_norad_cat_id": 46826,
        "meta_element_set_no": 999,
        "meta_rev_at_epoch": 3783,
        "meta_bstar": 0,
        "meta_mean_motion_dot": 6.7e-07,
        "meta_mean_motion_ddot": 0,
        "tle_line1": "1 46826U 20078A   25350.04599424  .00000067  00000+0  00000+0 0  9996",
        "tle_line2": "2 46826  54.0145 218.2068 0064755 203.3828 339.3936  2.00566891 37831"
      },
      "geometry": {
        "type": "Point",
        "coordinates": [
          81.8207942631038,
          -43.605645515318365
        ]
      }
    }
  ]
}